[{"OBJECT_NAME":"LUSAT (LO-19)","OBJECT_ID":"1990-005G","EPOCH":"2026-03-09T14:54:14.260896","MEAN_MOTION":14.34087969,"ECCENTRICITY":0.001234,"INCLINATION":98.8938,"RA_OF_ASC_NODE":87.6461,"ARG_OF_PERICENTER":134.6824,"MEAN_ANOMALY":225.5367,"EPHEMERIS_TYPE":0,"CLASSIFICATION_TYPE":"U","NORAD_CAT_ID":20442,"ELEMENT_SET_NO":999,"REV_AT_EPOCH":88812,"BSTAR":8.4338e-5,"MEAN_MOTION_DOT":1.89e-6,"MEAN_MOTION_DDOT":0},{"OBJECT_NAME":"COSMOS 2251 DEB","OBJECT_ID":"1993-036FF","EPOCH":"2026-03-09T14:04:17.076864","MEAN_MOTION":14.37378174,"ECCENTRICITY":0.0125443,"INCLINATION":73.9963,"RA_OF_ASC_NODE":30.5611,"ARG_OF_PERICENTER":179.955,"MEAN_ANOMALY":302.1629,"EPHEMERIS_TYPE":0,"CLASSIFICATION_TYPE":"U","NORAD_CAT_ID":33972,"ELEMENT_SET_NO":999,"REV_AT_EPOCH":88321,"BSTAR":0.0013771,"MEAN_MOTION_DOT":4.479e-5,"MEAN_MOTION_DDOT":0}]
